satname,norad_id,inclination_deg,eccentricity,mean_motion_rev_per_day,perigee_km,apogee_km,l1,l2
STARLINK-1452,45669,53.0507,0.0004437,15.21269131,498.95868357616655,505.06412727114,1 45669U 20035N   25259.83267718  .00040275  00000+0  17837-2 0  9990,2 45669  53.0507 113.9160 0004437 174.9360 185.1681 15.21269131292713
STARLINK-1453,45670,53.0536,0.0001288,15.06399907,546.3198580389226,548.1038279008717,1 45670U 20035P   25259.81248344  .00000525  00000+0  54102-4 0  9996,2 45670  53.0536  97.1871 0001288  59.0889 301.0226 15.06399907292834
STARLINK-1454,45671,53.0545,0.0001567,15.06391958,546.1509996383493,548.3214116009904,1 45671U 20035Q   25260.02349258 -.00000611  00000+0 -22142-4 0  9995,2 45671  53.0545 126.2377 0001567  91.3621 268.7547 15.06391958292544
STARLINK-1456,45673,53.0538,0.0001482,15.0639355,546.2049867438818,548.2576659158058,1 45673U 20035S   25260.03825040  .00002366  00000+0  17771-3 0  9994,2 45673  53.0538 126.1728 0001482  91.3520 268.7639 15.06393550292565
STARLINK-1457,45674,53.0534,0.0001362,15.06401794,546.2628278674019,548.1492913168349,1 45674U 20035T   25260.04560579  .00001018  00000+0  87255-4 0  9997,2 45674  53.0534 126.1381 0001362  90.7922 269.3223 15.06401794292536
STARLINK-1458,45675,53.0537,0.0001516,15.06392372,546.1850503726855,548.2848231439102,1 45675U 20035U   25260.03455390 -.00001143  00000+0 -57878-4 0  9990,2 45675  53.0537 126.1860 0001516  93.5996 266.5167 15.06392372292521
STARLINK-1460,45676,53.0533,0.0001353,15.0639304,546.2958868719479,548.169891964023,1 45676U 20035V   25260.07141206 -.00003333  00000+0 -20501-3 0  9998,2 45676  53.0533 126.0209 0001353  90.8458 269.2686 15.06393040292525
STARLINK-1392,45677,53.055,0.0001305,15.06389864,546.3388614517498,548.1463855334823,1 45677U 20035W   25260.01612313 -.00001826  00000+0 -10374-3 0  9997,2 45677  53.0550 126.2685 0001305  90.1938 269.9201 15.06389864292550
STARLINK-1394,45679,53.0545,0.0001753,15.0639966,545.9985862046269,548.4266137743834,1 45679U 20035Y   25260.01335509 -.00002238  00000+0 -13140-3 0  9990,2 45679  53.0545 116.2815 0001753  91.8362 268.2827 15.06399660292692
STARLINK-1402,45685,53.0542,0.0001206,15.06412262,546.3387844254339,548.0091694330695,1 45685U 20035AE  25259.97777102  .00003275  00000+0  23860-3 0  9999,2 45685  53.0542 110.8618 0001206 117.2070 242.9042 15.06412262292770
STARLINK-1404,45686,53.0541,0.0001452,15.06392186,546.2299427383878,548.2410709143696,1 45686U 20035AF  25259.97281716 -.00001204  00000+0 -61956-4 0  9992,2 45686  53.0541 116.4672 0001452  91.7800 268.3356 15.06392186292695
STARLINK-1413,45689,53.0535,0.0001304,15.06395768,546.3214612958154,548.1275955824321,1 45689U 20035AJ  25259.92488739 -.00002717  00000+0 -16360-3 0  9992,2 45689  53.0535 116.6700 0001304  86.6383 273.4756 15.06395768292599
STARLINK-1417,45693,53.0543,0.0001529,15.06385638,546.196683224659,548.3144682743232,1 45693U 20035AN  25259.92121502 -.00000701  00000+0 -28178-4 0  9991,2 45693  53.0543 116.6992 0001529  92.5547 267.5617 15.06385638292677
STARLINK-1420,45695,53.0543,0.000144,15.06401306,546.2103056233127,548.2048048552206,1 45695U 20035AQ  25259.85575083  .00000345  00000+0  42026-4 0  9992,2 45695  53.0543  96.9791 0001440  92.5705 267.5448 15.06401306292958
STARLINK-1422,45696,53.053,0.0001429,15.06397951,546.2282046289602,548.2074710416127,1 45696U 20035AR  25259.86592625 -.00000527  00000+0 -16518-4 0  9996,2 45696  53.0530 116.9465 0001429  91.5853 268.5300 15.06397951292662
STARLINK-1351,45697,53.0549,0.000139,15.06394388,546.2661321230426,548.1913838037553,1 45697U 20035AS  25259.84196125  .00000011  00000+0  19640-4 0  9995,2 45697  53.0549  97.0499 0001390  89.6678 270.4470 15.06394388292952
STARLINK-1398,45699,53.0529,0.0006756,15.42179109,435.0732171087011,444.28545053896414,1 45699U 20035AU  25259.71695678  .00128239  00000+0  29035-2 0  9990,2 45699  53.0529  69.8534 0006756 128.0089 232.1526 15.42179109293325
STARLINK-1400,45700,53.0538,0.0001249,15.06407837,546.3225657312532,548.0525118010373,1 45700U 20035AV  25259.81613637  .00002213  00000+0  16741-3 0  9993,2 45700  53.0538  97.1692 0001249  91.9328 268.1804 15.06407837292940
STARLINK-1403,45701,53.0545,0.0001345,15.06386512,546.3214320829511,548.18436196525,1 45701U 20035AW  25259.77930174 -.00000970  00000+0 -46284-4 0  9993,2 45701  53.0545  97.3321 0001345  92.7640 267.3503 15.06386512292935
STARLINK-1407,45703,53.0435,0.0007351,15.33586233,460.09251626153855,470.15347710866445,1 45703U 20035AY  25259.75750339  .00015767  00000+0  48884-3 0  9991,2 45703  53.0435  65.8180 0007351 205.2433 154.8210 15.33586233293389
STARLINK-1411,45706,53.0565,0.0001157,15.27103319,483.68281729390856,485.2708261322541,1 45706U 20035BB  25259.80337571  .00126560  00000+0  46312-2 0  9996,2 45706  53.0565  91.6602 0001157 118.5126 241.5989 15.27103319293015
STARLINK-1423,45710,53.0539,0.0001381,15.06392955,546.2767563150555,548.1895435504666,1 45710U 20035BF  25259.87145053  .00000548  00000+0  55666-4 0  9991,2 45710  53.0539  96.9201 0001381  92.6200 267.4947 15.06392955292954
STARLINK-1433,45711,53.0525,0.0001003,15.06402536,546.5091737936491,547.8983971552152,1 45711U 20035BG  25259.78664977 -.00007776  00000+0 -50371-3 0  9992,2 45711  53.0525  97.3010 0001003  96.2596 263.8508 15.06402536292930
STARLINK-1434,45712,53.0522,0.0004435,15.11079437,529.8417331494684,535.9718289832754,1 45712U 20035BH  25259.82184354  .00028565  00000+0  16977-2 0  9994,2 45712  53.0522  95.4624 0004435  98.9610 261.1883 15.11079437292973
STARLINK-1465,45731,53.0498,0.0001453,15.06414187,546.161830340111,548.1743239955367,1 45731U 20038B   25259.48809781  .00001137  00000+0  95151-4 0  9997,2 45731  53.0498 298.6392 0001453  78.3954 281.7198 15.06414187289933
STARLINK-1471,45735,53.0509,0.0003993,15.37995714,449.30955900424397,454.7641358387946,1 45735U 20038F   25259.69794281  .00039057  00000+0  10345-2 0  9994,2 45735  53.0509 248.4879 0003993  43.0586 317.0728 15.37995714290662
STARLINK-1474,45738,53.0389,0.0005296,15.58808681,387.51882243238106,394.6888023008387,1 45738U 20038J   25260.02634582  .00043084  00000+0  55086-3 0  9990,2 45738  53.0389 211.8822 0005296  94.7215 265.4402 15.58808681291208
STARLINK-1475,45739,53.0546,0.0008828,15.58308495,386.57509808588566,398.52942704787347,1 45739U 20038K   25260.06825126  .00138224  00000+0  17637-2 0  9991,2 45739  53.0546 179.3298 0008828  66.3481 293.8456 15.58308495291676
